$$SOE
2461295.500000000, A.D. 2026-Sep-12 00:00:00.0000, -2.408677647470900E+07, -4.054122951493849E+08, -9.312385533291399E+06,
2461302.500000000, A.D. 2026-Sep-19 00:00:00.0000, -1.309134841717188E+07, -4.050238493980988E+08, -9.326336013206869E+06,
2461309.500000000, A.D. 2026-Sep-26 00:00:00.0000, -2.086371675041324E+06, -4.043402137242205E+08, -9.333488413316607E+06,
2461316.500000000, A.D. 2026-Oct-03 00:00:00.0000, 8.920141472897623E+06, -4.033599408348894E+08, -9.333792494964898E+06,
2461323.500000000, A.D. 2026-Oct-10 00:00:00.0000, 1.992007176966612E+07, -4.020817978335147E+08, -9.327202771897376E+06,
2461330.500000000, A.D. 2026-Oct-17 00:00:00.0000, 3.090519807731611E+07, -4.005047729303604E+08, -9.313678672170192E+06,
2461337.500000000, A.D. 2026-Oct-24 00:00:00.0000, 4.186720286349425E+07, -3.986280822013726E+08, -9.293184707475781E+06,
2461344.500000000, A.D. 2026-Oct-31 00:00:00.0000, 5.279767818614534E+07, -3.964511764399990E+08, -9.265690663838238E+06,
2461351.500000000, A.D. 2026-Nov-07 00:00:00.0000, 6.368813252358992E+07, -3.939737480055696E+08, -9.231171837983519E+06,
2461358.500000000, A.D. 2026-Nov-14 00:00:00.0000, 7.452999865707065E+07, -3.911957367570576E+08, -9.189609264422715E+06,
2461365.500000000, A.D. 2026-Nov-21 00:00:00.0000, 8.531464079839997E+07, -3.881173343641981E+08, -9.140989710450560E+06,
2461372.500000000, A.D. 2026-Nov-28 00:00:00.0000, 9.603335996792698E+07, -3.847389899748821E+08, -9.085305592508882E+06,
2461379.500000000, A.D. 2026-Dec-05 00:00:00.0000, 1.066774012454269E+08, -3.810614178655743E+08, -9.022555198740512E+06,
2461386.500000000, A.D. 2026-Dec-12 00:00:00.0000, 1.172379630602220E+08, -3.770856039356048E+08, -8.952742977704376E+06,
2461393.500000000, A.D. 2026-Dec-19 00:00:00.0000, 1.277062066318619E+08, -3.728128110099784E+08, -8.875879718624055E+06,
2461400.500000000, A.D. 2026-Dec-26 00:00:00.0000, 1.380732654152206E+08, -3.682445837882753E+08, -8.791982680057570E+06,
2461407.500000000, A.D. 2027-Jan-02 00:00:00.0000, 1.483302548197017E+08, -3.633827535993264E+08, -8.701075706939608E+06,
2461414.500000000, A.D. 2027-Jan-09 00:00:00.0000, 1.584682823104466E+08, -3.582294429096539E+08, -8.603189344165549E+06,
2461421.500000000, A.D. 2027-Jan-16 00:00:00.0000, 1.684784579147704E+08, -3.527870695440563E+08, -8.498360948434472E+06,
2461428.500000000, A.D. 2027-Jan-23 00:00:00.0000, 1.783519051653959E+08, -3.470583506243303E+08, -8.386634805131510E+06,
2461435.500000000, A.D. 2027-Jan-30 00:00:00.0000, 1.880797726522297E+08, -3.410463062409419E+08, -8.268062270720795E+06,
2461442.500000000, A.D. 2027-Feb-06 00:00:00.0000, 1.976532465891411E+08, -3.347542624867568E+08, -8.142701951058030E+06,
2461449.500000000, A.D. 2027-Feb-13 00:00:00.0000, 2.070635639134457E+08, -3.281858526037505E+08, -8.010619772920683E+06,
2461456.500000000, A.D. 2027-Feb-20 00:00:00.0000, 2.163020235280769E+08, -3.213450170034043E+08, -7.871888795942321E+06,
2461463.500000000, A.D. 2027-Feb-27 00:00:00.0000, 2.253599970537206E+08, -3.142360053421583E+08, -7.726589155193239E+06,
2461470.500000000, A.D. 2027-Mar-06 00:00:00.0000, 2.342289420801227E+08, -3.068633786986458E+08, -7.574808253707618E+06,
2461477.500000000, A.D. 2027-Mar-13 00:00:00.0000, 2.429004162859184E+08, -2.992320097764306E+08, -7.416640890178755E+06,
2461484.500000000, A.D. 2027-Mar-20 00:00:00.0000, 2.513660912640511E+08, -2.913470819421768E+08, -7.252189285895497E+06,
2461491.500000000, A.D. 2027-Mar-27 00:00:00.0000, 2.596177662185837E+08, -2.832140876251977E+08, -7.081563073762000E+06,
2461498.500000000, A.D. 2027-Apr-03 00:00:00.0000, 2.676473816970873E+08, -2.748388261057240E+08, -6.904879271338820E+06,
2461505.500000000, A.D. 2027-Apr-10 00:00:00.0000, 2.754470333779510E+08, -2.662274006515201E+08, -6.722262241036952E+06,
2461512.500000000, A.D. 2027-Apr-17 00:00:00.0000, 2.830089858884122E+08, -2.573862150023073E+08, -6.533843640124366E+06,
2461519.500000000, A.D. 2027-Apr-24 00:00:00.0000, 2.903256866816769E+08, -2.483219692498216E+08, -6.339762372583702E+06,
2461526.500000000, A.D. 2027-May-01 00:00:00.0000, 2.973897802204349E+08, -2.390416550708847E+08, -6.140164567948714E+06,
2461533.500000000, A.D. 2027-May-08 00:00:00.0000, 3.041941227248558E+08, -2.295525495531772E+08, -5.935203554042354E+06,
2461540.500000000, A.D. 2027-May-15 00:00:00.0000, 3.107317959417549E+08, -2.198622066559356E+08, -5.725039608215749E+06,
2461547.500000000, A.D. 2027-May-22 00:00:00.0000, 3.169961183229188E+08, -2.099784488994917E+08, -5.509839555412620E+06,
2461554.500000000, A.D. 2027-May-29 00:00:00.0000, 3.229806569175944E+08, -1.999093607576207E+08, -5.289776640885636E+06,
2461561.500000000, A.D. 2027-Jun-05 00:00:00.0000, 3.286792408129771E+08, -1.896632806313850E+08, -5.065030502645150E+06,
2461568.500000000, A.D. 2027-Jun-12 00:00:00.0000, 3.340859740634161E+08, -1.792487909881827E+08, -4.835787024073794E+06,
2461575.500000000, A.D. 2027-Jun-19 00:00:00.0000, 3.391952477243397E+08, -1.686747076194389E+08, -4.602238112780161E+06,
2461582.500000000, A.D. 2027-Jun-26 00:00:00.0000, 3.440017512177328E+08, -1.579500682993768E+08, -4.364581452859052E+06,
2461589.500000000, A.D. 2027-Jul-03 00:00:00.0000, 3.485004831103932E+08, -1.470841208612594E+08, -4.123020242275387E+06,
2461596.500000000, A.D. 2027-Jul-10 00:00:00.0000, 3.526867612931051E+08, -1.360863107113165E+08, -3.877762918381467E+06,
2461603.500000000, A.D. 2027-Jul-17 00:00:00.0000, 3.565562325504434E+08, -1.249662678527644E+08, -3.629022878526352E+06,
2461610.500000000, A.D. 2027-Jul-24 00:00:00.0000, 3.601048816321261E+08, -1.137337935203187E+08, -3.377018215928264E+06,
2461617.500000000, A.D. 2027-Jul-31 00:00:00.0000, 3.633290401933275E+08, -1.023988462292172E+08, -3.121971490173072E+06,
2461624.500000000, A.D. 2027-Aug-07 00:00:00.0000, 3.662253953655253E+08, -9.097152612865548E+07, -2.864109420438189E+06,
2461631.500000000, A.D. 2027-Aug-14 00:00:00.0000, 3.687909956267483E+08, -7.946205796158481E+07, -2.603662311587531E+06,
2461638.500000000, A.D. 2027-Aug-21 00:00:00.0000, 3.710232545590451E+08, -6.788077604935245E+07, -2.340863545928109E+06,
2461645.500000000, A.D. 2027-Aug-28 00:00:00.0000, 3.729199558931244E+08, -5.623811015149280E+07, -2.075949358510714E+06,
2461652.500000000, A.D. 2027-Sep-04 00:00:00.0000, 3.744792586343217E+08, -4.454456975287408E+07, -1.809158584499754E+06,
2461659.500000000, A.D. 2027-Sep-11 00:00:00.0000, 3.756997008556681E+08, -3.281072749739800E+07, -1.540732306033665E+06,
2461666.500000000, A.D. 2027-Sep-18 00:00:00.0000, 3.765802022756658E+08, -2.104720247808426E+07, -1.270913465416862E+06,
2461673.500000000, A.D. 2027-Sep-25 00:00:00.0000, 3.771200658375972E+08, -9.264643520962343E+06, -9.999464735649056E+05,
2461680.500000000, A.D. 2027-Oct-02 00:00:00.0000, 3.773189783580914E+08, 2.526287505654872E+06, -7.280768199678590E+05,
2461687.500000000, A.D. 2027-Oct-09 00:00:00.0000, 3.771770102660680E+08, 1.431493229373005E+07, -4.555506882444415E+05,
2461694.500000000, A.D. 2027-Oct-16 00:00:00.0000, 3.766946145006439E+08, 2.609065249696732E+07, -1.826145892137364E+05,
2461701.500000000, A.D. 2027-Oct-23 00:00:00.0000, 3.758726248388473E+08, 3.784284586654003E+07, 9.048496245200746E+04,
2461708.500000000, A.D. 2027-Oct-30 00:00:00.0000, 3.747122540409387E+08, 4.956096267260027E+07, 3.635017416267395E+05,
2461715.500000000, A.D. 2027-Nov-06 00:00:00.0000, 3.732150906674169E+08, 6.123452348523900E+07, 6.361902737621889E+05,
2461722.500000000, A.D. 2027-Nov-13 00:00:00.0000, 3.713830926109897E+08, 7.285313618533793E+07, 9.083064751956500E+05,
2461729.500000000, A.D. 2027-Nov-20 00:00:00.0000, 3.692185802757059E+08, 8.440650996282865E+07, 1.179608026527673E+06,
2461736.500000000, A.D. 2027-Nov-27 00:00:00.0000, 3.667242310474823E+08, 9.588446921440083E+07, 1.449854571426190E+06,
2461743.500000000, A.D. 2027-Dec-04 00:00:00.0000, 3.639030730640684E+08, 1.072769682082212E+08, 1.718808000093453E+06,
2461750.500000000, A.D. 2027-Dec-11 00:00:00.0000, 3.607584777712118E+08, 1.185741055085362E+08, 1.986232788245060E+06,
2461757.500000000, A.D. 2027-Dec-18 00:00:00.0000, 3.572941515806993E+08, 1.297661377809527E+08, 2.251896337845199E+06,
2461764.500000000, A.D. 2027-Dec-25 00:00:00.0000, 3.535141268257003E+08, 1.408434929394928E+08, 2.515569304721594E+06,
2461771.500000000, A.D. 2028-Jan-01 00:00:00.0000, 3.494227521006364E+08, 1.517967826164004E+08, 2.777025909754977E+06,
$$EOE